{
    "links": {
        "self": "http://www.neowsapp.com/rest/v1/neo/3603171?api_key=iIulBulltgU6a56xZRHN4H3l9WmuAYTsLGpBGhQ2"
    },
    "id": "3603171",
    "neo_reference_id": "3603171",
    "name": "(2012 HA34)",
    "designation": "2012 HA34",
    "nasa_jpl_url": "http://ssd.jpl.nasa.gov/sbdb.cgi?sstr=3603171",
    "absolute_magnitude_h": 25.3,
    "estimated_diameter": {
        "kilometers": {
            "estimated_diameter_min": 0.0231502122,
            "estimated_diameter_max": 0.0517654482
        },
        "meters": {
            "estimated_diameter_min": 23.150212221,
            "estimated_diameter_max": 51.7654482198
        },
        "miles": {
            "estimated_diameter_min": 0.0143848705,
            "estimated_diameter_max": 0.0321655483
        },
        "feet": {
            "estimated_diameter_min": 75.9521422633,
            "estimated_diameter_max": 169.8341531374
        }
    },
    "is_potentially_hazardous_asteroid": false,
    "close_approach_data": [
        {
            "close_approach_date": "2012-05-02",
            "close_approach_date_full": "2012-May-02 08:26",
            "epoch_date_close_approach": 1335947160000,
            "relative_velocity": {
                "kilometers_per_second": "12.4653532385",
                "kilometers_per_hour": "44875.271658532",
                "miles_per_hour": "27883.7486591584"
            },
            "miss_distance": {
                "astronomical": "0.008875944",
                "lunar": "3.452742216",
                "kilometers": "1327822.31663928",
                "miles": "825070.528530864"
            },
            "orbiting_body": "Moon"
        },
        {
            "close_approach_date": "2012-05-02",
            "close_approach_date_full": "2012-May-02 11:04",
            "epoch_date_close_approach": 1335956640000,
            "relative_velocity": {
                "kilometers_per_second": "11.8806772277",
                "kilometers_per_hour": "42770.4380195976",
                "miles_per_hour": "26575.8868905661"
            },
            "miss_distance": {
                "astronomical": "0.0073806717",
                "lunar": "2.8710812913",
                "kilometers": "1104132.765489279",
                "miles": "686076.2866948902"
            },
            "orbiting_body": "Earth"
        }
    ],
    "orbital_data": {
        "orbit_id": "4",
        "orbit_determination_date": "2017-04-06 08:49:53",
        "first_observation_date": "2012-04-30",
        "last_observation_date": "2012-04-30",
        "data_arc_in_days": null,
        "observations_used": 19,
        "orbit_uncertainty": "8",
        "minimum_orbit_intersection": ".00237737",
        "jupiter_tisserand_invariant": "4.685",
        "epoch_osculation": "2456048.5",
        "eccentricity": ".3713123762781698",
        "semi_major_axis": "1.38829132557921",
        "inclination": "12.49930702328204",
        "ascending_node_longitude": "42.34389493734072",
        "orbital_period": "597.4744552971227",
        "perihelion_distance": ".8728015745120231",
        "perihelion_argument": "240.4986801864346",
        "aphelion_distance": "1.903781076646397",
        "perihelion_time": "2456097.047433032672",
        "mean_anomaly": "330.7484131968946",
        "mean_motion": ".6025362202656392",
        "equinox": "J2000",
        "orbit_class": {
            "orbit_class_type": "APO",
            "orbit_class_description": "Near-Earth asteroid orbits which cross the Earth’s orbit similar to that of 1862 Apollo",
            "orbit_class_range": "a (semi-major axis) > 1.0 AU; q (perihelion) < 1.017 AU"
        }
    },
    "is_sentry_object": false
}